{
    "week": 293,
    "satellites": [
        {
            "Name": "BEIDOU-2 G6 (C02)",
            "Line1": "1 38953U 12059A   24323.76577422 -.00000173  00000+0  00000+0 0  9999",
            "Line2": "2 38953   2.9545  79.2302 0006822 289.8556  48.8590  1.00274392 44278",
            "SatelliteNumber": "38953",
            "Classification": "U",
            "LaunchYear": "12",
            "LaunchNumber": "059",
            "PieceOfLaunch": "A",
            "EpochYear": "24",
            "EpochDay": 323.76577422,
            "FirstDerivativeMeanMotion": -1.73e-06,
            "SecondDerivativeMeanMotion": "00000+0",
            "BSTAR": "00000+0",
            "SetNumber": "999",
            "Inclination": 2.9545,
            "RAAN": 79.2302,
            "Eccentricity": 0.0006822,
            "ArgumentOfPerigee": 289.8556,
            "MeanAnomaly": 48.859,
            "MeanMotion": 1.00274392,
            "RevolutionNumber": "4427"
        },
        {
            "Name": "BEIDOU-3S IGSO-1S (C31)",
            "Line1": "1 40549U 15019A   24323.82321561 -.00000192  00000+0  00000+0 0  9991",
            "Line2": "2 40549  50.2864 302.3563 0035536 198.6067 310.5206  1.00270031 35290",
            "SatelliteNumber": "40549",
            "Classification": "U",
            "LaunchYear": "15",
            "LaunchNumber": "019",
            "PieceOfLaunch": "A",
            "EpochYear": "24",
            "EpochDay": 323.82321561,
            "FirstDerivativeMeanMotion": -1.92e-06,
            "SecondDerivativeMeanMotion": "00000+0",
            "BSTAR": "00000+0",
            "SetNumber": "999",
            "Inclination": 50.2864,
            "RAAN": 302.3563,
            "Eccentricity": 0.0035536,
            "ArgumentOfPerigee": 198.6067,
            "MeanAnomaly": 310.5206,
            "MeanMotion": 1.00270031,
            "RevolutionNumber": "3529"
        },
        {
            "Name": "BEIDOU-3S M2S (C58)",
            "Line1": "1 40748U 15037A   24323.16897149 -.00000078  00000+0  00000+0 0  9992",
            "Line2": "2 40748  55.3629 321.7926 0013207 259.0169 100.8399  1.86229086 63393",
            "SatelliteNumber": "40748",
            "Classification": "U",
            "LaunchYear": "15",
            "LaunchNumber": "037",
            "PieceOfLaunch": "A",
            "EpochYear": "24",
            "EpochDay": 323.16897149,
            "FirstDerivativeMeanMotion": -7.8e-07,
            "SecondDerivativeMeanMotion": "00000+0",
            "BSTAR": "00000+0",
            "SetNumber": "999",
            "Inclination": 55.3629,
            "RAAN": 321.7926,
            "Eccentricity": 0.0013207,
            "ArgumentOfPerigee": 259.0169,
            "MeanAnomaly": 100.8399,
            "MeanMotion": 1.86229086,
            "RevolutionNumber": "6339"
        },
        {
            "Name": "BEIDOU-3S M1S (C57)",
            "Line1": "1 40749U 15037B   24323.44217333 -.00000078  00000+0  00000+0 0  9995",
            "Line2": "2 40749  55.3654 321.7699 0004177 319.3167  40.6575  1.86227513 63393",
            "SatelliteNumber": "40749",
            "Classification": "U",
            "LaunchYear": "15",
            "LaunchNumber": "037",
            "PieceOfLaunch": "B",
            "EpochYear": "24",
            "EpochDay": 323.44217333,
            "FirstDerivativeMeanMotion": -7.8e-07,
            "SecondDerivativeMeanMotion": "00000+0",
            "BSTAR": "00000+0",
            "SetNumber": "999",
            "Inclination": 55.3654,
            "RAAN": 321.7699,
            "Eccentricity": 0.0004177,
            "ArgumentOfPerigee": 319.3167,
            "MeanAnomaly": 40.6575,
            "MeanMotion": 1.86227513,
            "RevolutionNumber": "6339"
        },
        {
            "Name": "BEIDOU-3S IGSO-2S (C56)",
            "Line1": "1 40938U 15053A   24323.59991722 -.00000155  00000+0  00000+0 0  9996",
            "Line2": "2 40938  50.1202 265.5973 0052199 189.2662 275.8559  1.00270567 33581",
            "SatelliteNumber": "40938",
            "Classification": "U",
            "LaunchYear": "15",
            "LaunchNumber": "053",
            "PieceOfLaunch": "A",
            "EpochYear": "24",
            "EpochDay": 323.59991722,
            "FirstDerivativeMeanMotion": -1.55e-06,
            "SecondDerivativeMeanMotion": "00000+0",
            "BSTAR": "00000+0",
            "SetNumber": "999",
            "Inclination": 50.1202,
            "RAAN": 265.5973,
            "Eccentricity": 0.0052199,
            "ArgumentOfPerigee": 189.2662,
            "MeanAnomaly": 275.8559,
            "MeanMotion": 1.00270567,
            "RevolutionNumber": "3358"
        },
        {
            "Name": "BEIDOU-2 IGSO-6 (C13)",
            "Line1": "1 41434U 16021A   24323.70275638 -.00000181  00000+0  00000+0 0  9997",
            "Line2": "2 41434  59.4091  43.7977 0054821 224.9026 138.8501  1.00284607 31703",
            "SatelliteNumber": "41434",
            "Classification": "U",
            "LaunchYear": "16",
            "LaunchNumber": "021",
            "PieceOfLaunch": "A",
            "EpochYear": "24",
            "EpochDay": 323.70275638,
            "FirstDerivativeMeanMotion": -1.81e-06,
            "SecondDerivativeMeanMotion": "00000+0",
            "BSTAR": "00000+0",
            "SetNumber": "999",
            "Inclination": 59.4091,
            "RAAN": 43.7977,
            "Eccentricity": 0.0054821,
            "ArgumentOfPerigee": 224.9026,
            "MeanAnomaly": 138.8501,
            "MeanMotion": 1.00284607,
            "RevolutionNumber": "3170"
        },
        {
            "Name": "BEIDOU-2 G7 (C03)",
            "Line1": "1 41586U 16037A   24323.50223014 -.00000351  00000+0  00000+0 0  9990",
            "Line2": "2 41586   1.7491  67.0243 0006751 340.5850 301.7778  1.00268369  1115",
            "SatelliteNumber": "41586",
            "Classification": "U",
            "LaunchYear": "16",
            "LaunchNumber": "037",
            "PieceOfLaunch": "A",
            "EpochYear": "24",
            "EpochDay": 323.50223014,
            "FirstDerivativeMeanMotion": -3.51e-06,
            "SecondDerivativeMeanMotion": "00000+0",
            "BSTAR": "00000+0",
            "SetNumber": "999",
            "Inclination": 1.7491,
            "RAAN": 67.0243,
            "Eccentricity": 0.0006751,
            "ArgumentOfPerigee": 340.585,
            "MeanAnomaly": 301.7778,
            "MeanMotion": 1.00268369,
            "RevolutionNumber": "111"
        },
        {
            "Name": "BEIDOU-3 M1 (C19)",
            "Line1": "1 43001U 17069A   24322.98093396 -.00000030  00000+0  00000+0 0  9993",
            "Line2": "2 43001  56.1915  82.1447 0007910 299.1498  60.7433  1.86231105 47878",
            "SatelliteNumber": "43001",
            "Classification": "U",
            "LaunchYear": "17",
            "LaunchNumber": "069",
            "PieceOfLaunch": "A",
            "EpochYear": "24",
            "EpochDay": 322.98093396,
            "FirstDerivativeMeanMotion": -3e-07,
            "SecondDerivativeMeanMotion": "00000+0",
            "BSTAR": "00000+0",
            "SetNumber": "999",
            "Inclination": 56.1915,
            "RAAN": 82.1447,
            "Eccentricity": 0.000791,
            "ArgumentOfPerigee": 299.1498,
            "MeanAnomaly": 60.7433,
            "MeanMotion": 1.86231105,
            "RevolutionNumber": "4787"
        },
        {
            "Name": "BEIDOU-3 M2 (C20)",
            "Line1": "1 43002U 17069B   24321.84459634 -.00000033  00000+0  00000+0 0  9992",
            "Line2": "2 43002  56.1895  82.2192 0005510 330.6794  29.2585  1.86230836 47843",
            "SatelliteNumber": "43002",
            "Classification": "U",
            "LaunchYear": "17",
            "LaunchNumber": "069",
            "PieceOfLaunch": "B",
            "EpochYear": "24",
            "EpochDay": 321.84459634,
            "FirstDerivativeMeanMotion": -3.3e-07,
            "SecondDerivativeMeanMotion": "00000+0",
            "BSTAR": "00000+0",
            "SetNumber": "999",
            "Inclination": 56.1895,
            "RAAN": 82.2192,
            "Eccentricity": 0.000551,
            "ArgumentOfPerigee": 330.6794,
            "MeanAnomaly": 29.2585,
            "MeanMotion": 1.86230836,
            "RevolutionNumber": "4784"
        },
        {
            "Name": "BEIDOU-3 M7 (C27)",
            "Line1": "1 43107U 18003A   24323.20319110 -.00000080  00000+0  00000+0 0  9995",
            "Line2": "2 43107  54.8213 322.3148 0002249  64.0464 295.9832  1.86232370 46622",
            "SatelliteNumber": "43107",
            "Classification": "U",
            "LaunchYear": "18",
            "LaunchNumber": "003",
            "PieceOfLaunch": "A",
            "EpochYear": "24",
            "EpochDay": 323.2031911,
            "FirstDerivativeMeanMotion": -8e-07,
            "SecondDerivativeMeanMotion": "00000+0",
            "BSTAR": "00000+0",
            "SetNumber": "999",
            "Inclination": 54.8213,
            "RAAN": 322.3148,
            "Eccentricity": 0.0002249,
            "ArgumentOfPerigee": 64.0464,
            "MeanAnomaly": 295.9832,
            "MeanMotion": 1.8623237,
            "RevolutionNumber": "4662"
        }
    ]
}